DIRECTV 10              
1 31862U 07032A   17082.78167985 -.00000115  00000-0  00000-0 0  9999
2 31862   0.0456 347.2659 0000124 148.9834 223.7427  1.00272042 11824
SPACEWAY 3              
1 32018U 07036A   17083.55117562 -.00000164  00000-0  00000-0 0  9993
2 32018   0.0136  20.7615 0000055 140.4823 124.4279  1.00271867 12788
BSAT-3A                 
1 32019U 07036B   17083.18967160 -.00000363  00000-0  00000-0 0  9991
2 32019   0.0502 221.0101 0001194  59.8439  79.1240  1.00270799 16694
INSAT-4CR               
1 32050U 07037A   17083.79145582  .00000112  00000-0  00000-0 0  9991
2 32050   0.0100 168.7782 0003478 190.8676 155.5726  1.00271657 17593
OPTUS D2                
1 32252U 07044A   17083.75466793 -.00000196  00000-0  00000-0 0  9992
2 32252   0.0188 156.4281 0003493 209.2438 240.4082  1.00273609 34631
INTELSAT 11 (IS-11)     
1 32253U 07044B   17083.78173222 -.00000282  00000-0  00000-0 0  9994
2 32253   0.0177 165.2933 0001850 219.0426  36.5119  1.00269863 34792
STAR ONE C1             
1 32293U 07056A   17082.67684423 -.00000289  00000-0  00000-0 0  9995
2 32293   0.0233 173.1018 0002570 196.1842 350.7188  1.00270935 17978
SKYNET 5B               
1 32294U 07056B   17083.71739542  .00000129  00000-0  00000-0 0  9997
2 32294   0.0723 344.2290 0003575  18.5814 102.9364  1.00276647 34415
ASTRA 4A (SIRIUS 4)     
1 32299U 07057A   17083.71228844  .00000019  00000-0  00000-0 0  9999
2 32299   0.0134 155.5417 0002674 207.0835  80.9695  1.00269339 17892
HORIZONS-2              
1 32388U 07063B   17083.82436647 -.00000195  00000-0  00000-0 0  9995
2 32388   0.0179 192.5536 0002733 172.9955 198.5438  1.00270150 34075
THURAYA-3               
1 32404U 08001A   17083.58017488 -.00000313  00000-0  00000-0 0  9990
2 32404   4.0930 352.8656 0004796   8.2771 128.4474  1.00272603 33712
EXPRESS-AM33            
1 32478U 08003A   17080.98867516 -.00000293  00000-0  00000-0 0  9996
2 32478   0.0268 294.0841 0001030 150.2361 187.7369  1.00269382 33785
THOR 5                  
1 32487U 08006A   17083.71228844 -.00000022  00000-0  00000-0 0  9998
2 32487   0.0407 253.6346 0002485 124.1303  60.2684  1.00272695 33496
KIZUNA (WINDS)          
1 32500U 08007A   17083.86072449 -.00000272  00000-0  00000-0 0  9996
2 32500   0.6554  90.7792 0002638 282.8726 261.6828  1.00270038 33099
AMC-14                  
1 32708U 08011A   17083.13247698  .00000100  00000-0  00000-0 0  9990
2 32708  18.9641  64.1284 0039779 351.2862 192.0575  1.00271415 34285
DIRECTV 11              
1 32729U 08013A   17083.55117562 -.00000139  00000-0  00000-0 0  9990
2 32729   0.0178  53.7548 0000378  61.7215 165.9609  1.00272276 11806
ICO G1                  
1 32763U 08016A   17083.58911480 -.00000182  00000-0  00000-0 0  9993
2 32763   3.8725 353.9480 0003815  17.1539 290.3552  1.00271956 32779
VINASAT-1               
1 32767U 08018A   17083.12856619 -.00000342  00000-0  00000-0 0  9999
2 32767   0.0155 189.6620 0001793 207.0030 323.3473  1.00270573 32793
STAR ONE C2             
1 32768U 08018B   17082.69070536 -.00000277  00000-0  00000-0 0  9994
2 32768   0.0447 132.9174 0002057 281.7424 305.3504  1.00271858 32874
TIANLIAN 1-01           
1 32779U 08019A   17083.82559309 -.00000149  00000-0  10000-3 0  9995
2 32779   2.6278  76.4953 0036196 232.8909 250.2631  1.00275546 32663
AMOS-3                  
1 32794U 08022A   17083.76487588 -.00000048  00000-0  00000-0 0  9992
2 32794   0.0149 187.2039 0001788 157.8874 108.5887  1.00270693 48563
GALAXY 18 (G-18)        
1 32951U 08024A   17082.83739887  .00000013  00000-0  00000-0 0  9999
2 32951   0.0252 181.9820 0002924 177.9383   0.0797  1.00269482 32274
CHINASAT 9 (ZX 9)       
1 33051U 08028A   17083.71367525 -.00000260  00000-0  00000-0 0  9994
2 33051   0.0018 206.1768 0004474 153.8372 171.4490  1.00269960 32207
SKYNET 5C               
1 33055U 08030A   17083.82920394 -.00000153  00000-0  00000-0 0  9993
2 33055   0.0605   9.8444 0003329   4.8091  88.4918  1.00271909 32098
TURKSAT 3A              
1 33056U 08030B   17083.83589913  .00000133  00000-0  00000-0 0  9990
2 33056   0.0613  93.4980 0004395 291.1338 140.7530  1.00272419 18555
INTELSAT 25 (IS-25)     
1 33153U 08034A   17083.58123298 -.00000237  00000-0  00000-0 0  9990
2 33153   0.0137 199.1504 0002722 140.9903  19.8406  1.00271547 31937
BADR-6                  
1 33154U 08034B   17083.79909552  .00000131  00000-0  00000-0 0  9991
2 33154   0.0662  37.7797 0005426 350.5544 107.7681  1.00272859 31957
ECHOSTAR 11             
1 33207U 08035A   17082.80150354 -.00000069  00000-0  00000-0 0  9991
2 33207   0.0171 151.1381 0003303 237.9651 330.9062  1.00272555 17444
SUPERBIRD-C2            
1 33274U 08038A   17083.85603912 -.00000264  00000-0  00000-0 0  9994
2 33274   0.0231 262.5544 0000547 110.4798 261.6155  1.00272162 71927
AMC-21                  
1 33275U 08038B   17083.61470362  .00000023  00000-0  00000-0 0  9992
2 33275   0.0346  45.9102 0002387 334.7475 257.9927  1.00272759 31681
INMARSAT 4-F3           
1 33278U 08039A   17083.45742583 -.00000149  00000-0  00000-0 0  9995
2 33278   3.0211   0.6192 0002804   8.0390 240.1328  1.00271898 12777
NIMIQ 4                 
1 33373U 08044A   17083.49492715 -.00000233  00000-0  00000-0 0  9994
2 33373   0.0090  97.2726 0002652 277.8093 263.2347  1.00271276 31023
GALAXY 19 (G-19)        
1 33376U 08045A   17082.76545428 -.00000152  00000-0  00000-0 0  9997
2 33376   0.0119 180.6423 0002848 187.6643 351.6892  1.00272120 31144
VENESAT-1               
1 33414U 08055A   17083.54145439 -.00000250  00000-0  00000-0 0  9995
2 33414   0.0450 356.5086 0001791  20.3327 282.2409  1.00270061 30876
ASTRA 1M                
1 33436U 08057A   17083.77853104  .00000106  00000-0  00000-0 0  9990
2 33436   0.0167 121.0418 0001951 308.3899  52.4173  1.00271933 11941
CIEL-2                  
1 33453U 08063A   17083.61461215  .00000045  00000-0  00000-0 0  9999
2 33453   0.0369 284.0397 0003045  99.0945 251.5405  1.00272943 30350
EUTELSAT HOT BIRD 13C   
1 33459U 08065A   17083.45805859  .00000074  00000-0  00000-0 0  9997
2 33459   0.0614 325.3697 0003928  68.1344 326.5122  1.00272675 13577
EUTELSAT 48D            
1 33460U 08065B   17083.83589913  .00000110  00000-0  00000-0 0  9992
2 33460   0.0583 345.7314 0001758  18.6778 167.0894  1.00273437 30228
FENGYUN 2E              
1 33463U 08066A   17083.96280223 -.00000217  00000-0  00000-0 0  9991
2 33463   2.0240  66.3032 0003758 215.0375 334.8902  1.00277296 30281
EXPRESS-AM44            
1 33595U 09007A   17083.76714870 -.00000102  00000-0  00000-0 0  9994
2 33595   0.0194 296.8330 0000720 160.0826 350.6692  1.00272466 29756
NSS-9                   
1 33749U 09008A   17083.67112891  .00000059  00000-0  00000-0 0  9991
2 33749   0.0006 186.1302 0002017 183.4609 237.3891  1.00272431 29752
EUTELSAT 33E            
1 33750U 09008B   17083.79702334  .00000142  00000-0  00000-0 0  9996
2 33750   0.0463 349.6991 0002393 347.0402 165.7381  1.00269981 29650
TELSTAR 11N             
1 34111U 09009A   17083.05984503 -.00000264  00000-0  00000-0 0  9994
2 34111   0.0246 177.0441 0002121 170.7556 177.9195  1.00269940 29602
EUTELSAT 10A            
1 34710U 09016A   17083.79439503  .00000055  00000-0  00000-0 0  9990
2 34710   0.0672 359.7606 0005170   2.2092 116.4399  1.00270676  7454
SES-7 (PROTOSTAR 2)     
1 34941U 09027A   17081.93034171 -.00000357  00000-0  00000-0 0  9990
2 34941   0.0415  80.4447 0001658 228.5118 314.7733  1.00268284 28815
MEASAT-3A               
1 35362U 09032A   17083.24049407 -.00000255  00000-0  00000-0 0  9995
2 35362   0.0338 210.5863 0000603 109.1732  40.2276  1.00271823 28434
GOES 14                 
1 35491U 09033A   17082.78503134 -.00000107  00000-0  00000-0 0  9995
2 35491   0.0961 109.5163 0005436 131.6322 118.7885  1.00272408 28351
SIRIUS FM-5             
1 35493U 09034A   17083.53113934 -.00000212  00000-0  00000-0 0  9994
2 35493   0.0207 174.3549 0000193 177.5370 295.3625  1.00265704 28165
TERRESTAR-1             
1 35496U 09035A   17082.75635344 -.00000068  00000-0  00000-0 0  9994
2 35496   2.9616 342.7352 0002970  21.3420 338.5851  1.00272387 28361
ASIASAT 5               
1 35696U 09042A   17083.97932257 -.00000320  00000-0  00000-0 0  9993
2 35696   0.0129 249.4161 0001528  93.2155 293.0119  1.00269261 27866
JCSAT-RA (JCSAT-12)     
1 35755U 09044A   17083.13966138 -.00000359  00000-0  00000-0 0  9996
2 35755   0.0713  61.7001 0000596 291.8693   6.4213  1.00269659 27813
OPTUS D3                
1 35756U 09044B   17083.85117716 -.00000161  00000-0  00000-0 0  9997
2 35756   0.0109  62.5933 0004144 303.1294 279.2150  1.00269321 27820
PALAPA D                
1 35812U 09046A   17083.18115219 -.00000371  00000-0  00000-0 0  9997
2 35812   0.0277  83.1942 0002173 327.2807 309.5357  1.00272613 27874
NIMIQ 5                 
1 35873U 09050A   17083.52003900 -.00000270  00000-0  00000-0 0  9998
2 35873   0.0114 135.5926 0002000 237.6531 283.4340  1.00270753 27552
AMAZONAS 2              
1 35942U 09054A   17083.53659250 -.00000295  00000-0  00000-0 0  9992
2 35942   0.0260 150.6180 0002131 272.6229 251.1071  1.00274926 27389
COMSATBW-1              
1 35943U 09054B   17083.88798257  .00000011  00000-0  00000-0 0  9997
2 35943   0.0629  94.8397 0002563 284.4857 185.8810  1.00273424 27505
NSS-12                  
1 36032U 09058A   17083.33619201  .00000058  00000-0  00000-0 0  9993
2 36032   0.0242  77.7072 0002695 282.4870 359.7975  1.00271598 27138
THOR 6                  
1 36033U 09058B   17083.71228844 -.00000023  00000-0  00000-0 0  9998
2 36033   0.0139 160.8558 0001948 232.0447  45.0314  1.00272137 27220
INTELSAT 14 (IS-14)     
1 36097U 09064A   17083.61865678 -.00000286  00000-0  00000-0 0  9997
2 36097   0.0214 171.8794 0002157 193.6041 354.5189  1.00271457 26897
